[{"OBJECT_NAME":"ONEWEB-0546","OBJECT_ID":"2023-043C","EPOCH":"2025-12-31T05:20:07.652256","MEAN_MOTION":13.16593103,"ECCENTRICITY":0.00014111,"INCLINATION":87.9052,"RA_OF_ASC_NODE":262.2131,"ARG_OF_PERICENTER":100.8669,"MEAN_ANOMALY":259.2621,"EPHEMERIS_TYPE":0,"CLASSIFICATION_TYPE":"U","NORAD_CAT_ID":56048,"ELEMENT_SET_NO":999,"REV_AT_EPOCH":13686,"BSTAR":-0.00012751513,"MEAN_MOTION_DOT":-3.6e-7,"MEAN_MOTION_DDOT":0},{"OBJECT_NAME":"ONEWEB-0547","OBJECT_ID":"2023-043D","EPOCH":"2025-12-31T06:41:08.782368","MEAN_MOTION":13.21827633,"ECCENTRICITY":0.00015477,"INCLINATION":87.9228,"RA_OF_ASC_NODE":277.4651,"ARG_OF_PERICENTER":69.5038,"MEAN_ANOMALY":290.6262,"EPHEMERIS_TYPE":0,"CLASSIFICATION_TYPE":"U","NORAD_CAT_ID":56049,"ELEMENT_SET_NO":999,"REV_AT_EPOCH":13604,"BSTAR":-8.4175148e-5,"MEAN_MOTION_DOT":-2.2e-7,"MEAN_MOTION_DDOT":0},{"OBJECT_NAME":"ONEWEB-0548","OBJECT_ID":"2023-043E","EPOCH":"2025-12-31T05:55:27.331104","MEAN_MOTION":13.16596094,"ECCENTRICITY":0.00019993,"INCLINATION":87.9038,"RA_OF_ASC_NODE":262.212,"ARG_OF_PERICENTER":76.4018,"MEAN_ANOMALY":283.7335,"EPHEMERIS_TYPE":0,"CLASSIFICATION_TYPE":"U","NORAD_CAT_ID":56050,"ELEMENT_SET_NO":999,"REV_AT_EPOCH":13686,"BSTAR":0.00010610617,"MEAN_MOTION_DOT":5.3e-7,"MEAN_MOTION_DDOT":0},{"OBJECT_NAME":"ONEWEB-0549","OBJECT_ID":"2023-043F","EPOCH":"2025-12-31T06:30:28.450368","MEAN_MOTION":13.21827913,"ECCENTRICITY":0.00014798,"INCLINATION":87.9224,"RA_OF_ASC_NODE":277.4801,"ARG_OF_PERICENTER":66.3461,"MEAN_ANOMALY":293.7828,"EPHEMERIS_TYPE":0,"CLASSIFICATION_TYPE":"U","NORAD_CAT_ID":56051,"ELEMENT_SET_NO":999,"REV_AT_EPOCH":13604,"BSTAR":-5.813557e-6,"MEAN_MOTION_DOT":1.1e-7,"MEAN_MOTION_DDOT":0},{"OBJECT_NAME":"ONEWEB-0550","OBJECT_ID":"2023-043G","EPOCH":"2025-12-31T06:11:31.832448","MEAN_MOTION":13.21824863,"ECCENTRICITY":0.00017295,"INCLINATION":87.9227,"RA_OF_ASC_NODE":277.4781,"ARG_OF_PERICENTER":77.7613,"MEAN_ANOMALY":282.3715,"EPHEMERIS_TYPE":0,"CLASSIFICATION_TYPE":"U","NORAD_CAT_ID":56052,"ELEMENT_SET_NO":999,"REV_AT_EPOCH":13604,"BSTAR":0.00014089065,"MEAN_MOTION_DOT":7.1e-7,"MEAN_MOTION_DDOT":0},{"OBJECT_NAME":"ONEWEB-0551","OBJECT_ID":"2023-043H","EPOCH":"2025-12-31T07:07:15.962592","MEAN_MOTION":13.15547458,"ECCENTRICITY":0.00017003,"INCLINATION":87.9004,"RA_OF_ASC_NODE":292.7378,"ARG_OF_PERICENTER":67.5446,"MEAN_ANOMALY":292.5865,"EPHEMERIS_TYPE":0,"CLASSIFICATION_TYPE":"U","NORAD_CAT_ID":56053,"ELEMENT_SET_NO":999,"REV_AT_EPOCH":13432,"BSTAR":-0.00031437121,"MEAN_MOTION_DOT":-1.06e-6,"MEAN_MOTION_DDOT":0},{"OBJECT_NAME":"ONEWEB-0552","OBJECT_ID":"2023-043J","EPOCH":"2025-12-31T06:04:23.457792","MEAN_MOTION":13.21828455,"ECCENTRICITY":0.00017297,"INCLINATION":87.9225,"RA_OF_ASC_NODE":277.4877,"ARG_OF_PERICENTER":65.885,"MEAN_ANOMALY":294.2465,"EPHEMERIS_TYPE":0,"CLASSIFICATION_TYPE":"U","NORAD_CAT_ID":56054,"ELEMENT_SET_NO":999,"REV_AT_EPOCH":13604,"BSTAR":-7.582546e-6,"MEAN_MOTION_DOT":1.0e-7,"MEAN_MOTION_DDOT":0},{"OBJECT_NAME":"ONEWEB-0553","OBJECT_ID":"2023-043K","EPOCH":"2025-12-31T05:29:14.697312","MEAN_MOTION":13.1659267,"ECCENTRICITY":0.0001578,"INCLINATION":87.9043,"RA_OF_ASC_NODE":262.2175,"ARG_OF_PERICENTER":87.7761,"MEAN_ANOMALY":272.3551,"EPHEMERIS_TYPE":0,"CLASSIFICATION_TYPE":"U","NORAD_CAT_ID":56055,"ELEMENT_SET_NO":999,"REV_AT_EPOCH":13687,"BSTAR":-0.00010648059,"MEAN_MOTION_DOT":-2.8e-7,"MEAN_MOTION_DDOT":0},{"OBJECT_NAME":"ONEWEB-0554","OBJECT_ID":"2023-043L","EPOCH":"2025-12-31T05:11:00.998592","MEAN_MOTION":13.16594086,"ECCENTRICITY":0.00018394,"INCLINATION":87.9035,"RA_OF_ASC_NODE":262.2321,"ARG_OF_PERICENTER":76.8461,"MEAN_ANOMALY":283.2875,"EPHEMERIS_TYPE":0,"CLASSIFICATION_TYPE":"U","NORAD_CAT_ID":56056,"ELEMENT_SET_NO":999,"REV_AT_EPOCH":13685,"BSTAR":-0.0001705228,"MEAN_MOTION_DOT":-5.2e-7,"MEAN_MOTION_DDOT":0},{"OBJECT_NAME":"ONEWEB-0555","OBJECT_ID":"2023-043M","EPOCH":"2025-12-31T06:05:44.121696","MEAN_MOTION":13.16593289,"ECCENTRICITY":0.00015191,"INCLINATION":87.9044,"RA_OF_ASC_NODE":262.2072,"ARG_OF_PERICENTER":95.0284,"MEAN_ANOMALY":265.1021,"EPHEMERIS_TYPE":0,"CLASSIFICATION_TYPE":"U","NORAD_CAT_ID":56057,"ELEMENT_SET_NO":999,"REV_AT_EPOCH":13686,"BSTAR":0.00012738566,"MEAN_MOTION_DOT":6.2e-7,"MEAN_MOTION_DDOT":0},{"OBJECT_NAME":"ONEWEB-0557","OBJECT_ID":"2023-043N","EPOCH":"2025-12-31T06:26:15.505728","MEAN_MOTION":13.16593543,"ECCENTRICITY":0.00026243,"INCLINATION":87.9042,"RA_OF_ASC_NODE":262.2168,"ARG_OF_PERICENTER":95.988,"MEAN_ANOMALY":264.155,"EPHEMERIS_TYPE":0,"CLASSIFICATION_TYPE":"U","NORAD_CAT_ID":56058,"ELEMENT_SET_NO":999,"REV_AT_EPOCH":13686,"BSTAR":-0.00016176514,"MEAN_MOTION_DOT":-4.9e-7,"MEAN_MOTION_DDOT":0},{"OBJECT_NAME":"ONEWEB-0558","OBJECT_ID":"2023-043P","EPOCH":"2025-12-31T05:54:57.009888","MEAN_MOTION":13.21825363,"ECCENTRICITY":0.0001323,"INCLINATION":87.922,"RA_OF_ASC_NODE":277.4822,"ARG_OF_PERICENTER":59.9677,"MEAN_ANOMALY":300.1588,"EPHEMERIS_TYPE":0,"CLASSIFICATION_TYPE":"U","NORAD_CAT_ID":56059,"ELEMENT_SET_NO":999,"REV_AT_EPOCH":13605,"BSTAR":3.5736436e-5,"MEAN_MOTION_DOT":2.8e-7,"MEAN_MOTION_DDOT":0},{"OBJECT_NAME":"ONEWEB-0559","OBJECT_ID":"2023-043Q","EPOCH":"2025-12-31T05:38:20.594112","MEAN_MOTION":13.21826276,"ECCENTRICITY":0.00016474,"INCLINATION":87.9223,"RA_OF_ASC_NODE":277.4781,"ARG_OF_PERICENTER":65.7311,"MEAN_ANOMALY":294.3995,"EPHEMERIS_TYPE":0,"CLASSIFICATION_TYPE":"U","NORAD_CAT_ID":56060,"ELEMENT_SET_NO":999,"REV_AT_EPOCH":13606,"BSTAR":0.00015536971,"MEAN_MOTION_DOT":7.7e-7,"MEAN_MOTION_DDOT":0},{"OBJECT_NAME":"ONEWEB-0566","OBJECT_ID":"2023-043R","EPOCH":"2025-12-31T07:17:52.058400","MEAN_MOTION":13.21827055,"ECCENTRICITY":0.000154,"INCLINATION":87.9225,"RA_OF_ASC_NODE":277.4625,"ARG_OF_PERICENTER":62.2397,"MEAN_ANOMALY":297.8893,"EPHEMERIS_TYPE":0,"CLASSIFICATION_TYPE":"U","NORAD_CAT_ID":56061,"ELEMENT_SET_NO":999,"REV_AT_EPOCH":13605,"BSTAR":-0.00015760827,"MEAN_MOTION_DOT":-5.2e-7,"MEAN_MOTION_DDOT":0},{"OBJECT_NAME":"ONEWEB-0568","OBJECT_ID":"2023-043S","EPOCH":"2025-12-31T06:51:19.548288","MEAN_MOTION":13.1659265,"ECCENTRICITY":0.0001492,"INCLINATION":87.9046,"RA_OF_ASC_NODE":262.2019,"ARG_OF_PERICENTER":85.4251,"MEAN_ANOMALY":274.7051,"EPHEMERIS_TYPE":0,"CLASSIFICATION_TYPE":"U","NORAD_CAT_ID":56062,"ELEMENT_SET_NO":999,"REV_AT_EPOCH":13688,"BSTAR":-0.00021651208,"MEAN_MOTION_DOT":-7.0e-7,"MEAN_MOTION_DDOT":0},{"OBJECT_NAME":"ONEWEB-0574","OBJECT_ID":"2023-043T","EPOCH":"2025-12-31T07:08:23.359776","MEAN_MOTION":13.2182743,"ECCENTRICITY":0.00017887,"INCLINATION":87.9225,"RA_OF_ASC_NODE":277.4511,"ARG_OF_PERICENTER":76.211,"MEAN_ANOMALY":283.9223,"EPHEMERIS_TYPE":0,"CLASSIFICATION_TYPE":"U","NORAD_CAT_ID":56063,"ELEMENT_SET_NO":999,"REV_AT_EPOCH":13609,"BSTAR":-5.6187757e-5,"MEAN_MOTION_DOT":-1.0e-7,"MEAN_MOTION_DDOT":0}]
