ONEWEB-0546             
1 56048U 23043C   25365.22231079 -.00000036  00000+0 -12752-3 0  9992
2 56048  87.9052 262.2131 0001411 100.8669 259.2621 13.16593103136863
ONEWEB-0547             
1 56049U 23043D   25365.27857387 -.00000022  00000+0 -84175-4 0  9998
2 56049  87.9228 277.4651 0001547  69.5038 290.6262 13.21827633136049
ONEWEB-0548             
1 56050U 23043E   25365.24684411  .00000053  00000+0  10611-3 0  9998
2 56050  87.9038 262.2120 0001999  76.4018 283.7335 13.16596094136861
ONEWEB-0549             
1 56051U 23043F   25365.27116262  .00000011  00000+0 -58136-5 0  9997
2 56051  87.9224 277.4801 0001479  66.3461 293.7828 13.21827913136047
ONEWEB-0550             
1 56052U 23043G   25365.25800732  .00000071  00000+0  14089-3 0  9990
2 56052  87.9227 277.4781 0001729  77.7613 282.3715 13.21824863136041
ONEWEB-0551             
1 56053U 23043H   25365.29671253 -.00000106  00000+0 -31437-3 0  9996
2 56053  87.9004 292.7378 0001700  67.5446 292.5865 13.15547458134320
ONEWEB-0552             
1 56054U 23043J   25365.25304928  .00000010  00000+0 -75825-5 0  9999
2 56054  87.9225 277.4877 0001729  65.8850 294.2465 13.21828455136043
ONEWEB-0553             
1 56055U 23043K   25365.22864233 -.00000028  00000+0 -10648-3 0  9997
2 56055  87.9043 262.2175 0001578  87.7761 272.3551 13.16592670136876
ONEWEB-0554             
1 56056U 23043L   25365.21598378 -.00000052  00000+0 -17052-3 0  9994
2 56056  87.9035 262.2321 0001839  76.8461 283.2875 13.16594086136858
ONEWEB-0555             
1 56057U 23043M   25365.25398289  .00000062  00000+0  12739-3 0  9994
2 56057  87.9044 262.2072 0001519  95.0284 265.1021 13.16593289136860
ONEWEB-0557             
1 56058U 23043N   25365.26823502 -.00000049  00000+0 -16177-3 0  9994
2 56058  87.9042 262.2168 0002624  95.9880 264.1550 13.16593543136863
ONEWEB-0558             
1 56059U 23043P   25365.24649317  .00000028  00000+0  35736-4 0  9991
2 56059  87.9220 277.4822 0001323  59.9677 300.1588 13.21825363136053
ONEWEB-0559             
1 56060U 23043Q   25365.23496058  .00000077  00000+0  15537-3 0  9994
2 56060  87.9223 277.4781 0001647  65.7311 294.3995 13.21826276136062
ONEWEB-0566             
1 56061U 23043R   25365.30407475 -.00000052  00000+0 -15761-3 0  9992
2 56061  87.9225 277.4625 0001540  62.2397 297.8893 13.21827055136050
ONEWEB-0568             
1 56062U 23043S   25365.28564292 -.00000070  00000+0 -21651-3 0  9996
2 56062  87.9046 262.2019 0001492  85.4251 274.7051 13.16592650136888
ONEWEB-0574             
1 56063U 23043T   25365.29749259 -.00000010  00000+0 -56188-4 0  9994
2 56063  87.9225 277.4511 0001788  76.2110 283.9223 13.21827430136092
